SAR-LUPE 2              
1 31797U 07030A   26168.92768616  .00006249  00000+0  11330-3 0  9996
2 31797  98.1050 273.4505 0005212 142.9489 217.2121 15.50047739 57059
SAPPHIRE                
1 39088U 13009C   26168.92872374  .00000080  00000+0  42921-4 0  9995
2 39088  98.4261 348.3669 0010097 244.1641 115.8504 14.35240791696683
PRAETORIAN SDA_602      
1 65565U 25203A   26168.89134216  .00000054  00000+0  37390-4 0  9990
2 65565  81.3031  10.1163 0005814 182.0093 178.1041 13.84342872 38799
PRAETORIAN SDA_603      
1 65566U 25203B   26168.62905817  .00000161  00000+0  13468-3 0  9993
2 65566  81.3036  10.2767 0009331 186.2890 173.8151 13.83905125 38761
PRAETORIAN SDA_604      
1 65567U 25203C   26168.64904770  .00000046  00000+0  31363-4 0  9990
2 65567  81.3053  10.6707 0005272 190.1985 169.9065 13.83047507 38747
PRAETORIAN SDA_605      
1 65568U 25203D   26168.61425203  .00000037  00000+0  22693-4 0  9993
2 65568  81.3018  10.3655 0008098 181.8190 178.2939 13.83434198 38752
PRAETORIAN SDA_606      
1 65569U 25203E   26168.30750804  .00000053  00000+0  37439-4 0  9990
2 65569  81.3055  10.8712 0005744 180.4388 179.6764 13.83407378 38708
PRAETORIAN SDA_607      
1 65570U 25203F   26168.67686111  .00000128  00000+0  10437-3 0  9992
2 65570  81.3038  10.1917 0008640 186.1202 173.9851 13.84284564 38779
PRAETORIAN SDA_608      
1 65571U 25203G   26168.65442382  .00000053  00000+0  37314-4 0  9992
2 65571  81.3006  10.3748 0005786 189.4027 170.7022 13.83816912 38758
PRAETORIAN SDA_609      
1 65572U 25203H   26168.65919682  .00000169  00000+0  14119-3 0  9990
2 65572  81.3047  10.3537 0006805 183.2886 176.8227 13.84212188 38769
PRAETORIAN SDA_610      
1 65573U 25203J   26168.63416744  .00000038  00000+0  23153-4 0  9994
2 65573  81.3007  10.3515 0006450 187.2167 172.8897 13.83851907 38759
PRAETORIAN SDA_611      
1 65574U 25203K   26168.63512371 -.00000010  00000+0 -20278-4 0  9995
2 65574  81.3010  10.5162 0005288 193.3135 166.7882 13.83308970 38747
PRAETORIAN SDA_612      
1 65575U 25203L   26168.62417982  .00000171  00000+0  14039-3 0  9990
2 65575  81.3030  10.1121 0008727 185.7227 174.3832 13.85039744 38774
PRAETORIAN SDA_613      
1 65576U 25203M   26168.64204584  .00000039  00000+0  24832-4 0  9991
2 65576  81.2998  10.5076 0005573 182.5581 177.5547 13.82765053 38745
PRAETORIAN SDA_614      
1 65577U 25203N   26168.61343669  .00000018  00000+0  52712-5 0  9993
2 65577  81.3013  10.1999 0007021 182.5171 177.5951 13.84777962 38776
PRAETORIAN SDA_615      
1 65578U 25203P   26168.95178474  .00000197  00000+0  16553-3 0  9990
2 65578  81.3025   9.8511 0008736 183.3497 176.7603 13.84436621 38813
PRAETORIAN SDA_616      
1 65579U 25203Q   26168.63435049  .00000153  00000+0  12826-3 0  9991
2 65579  81.3055  10.6646 0005347 190.6976 169.4067 13.83268879 38746
PRAETORIAN SDA_617      
1 65580U 25203R   26168.65599292  .00000029  00000+0  15687-4 0  9997
2 65580  81.3037  10.4740 0007282 182.7306 177.3811 13.83150070 38759
PRAETORIAN SDA_618      
1 65581U 25203S   26168.62867133  .00000211  00000+0  17699-3 0  9994
2 65581  81.3022  10.0796 0009595 186.4630 173.6405 13.84669422 38778
PRAETORIAN SDA_619      
1 65582U 25203T   26168.66489465  .00000800  00000+0  71207-3 0  9996
2 65582  81.3070  10.3479 0007378 186.7344 173.3714 13.83796221 39391
PRAETORIAN SDA_620      
1 65583U 25203U   26168.62063443  .00000165  00000+0  13841-3 0  9991
2 65583  81.3030  10.4057 0007513 179.8955 180.2204 13.83617948 38751
PRAETORIAN SDA_621      
1 65584U 25203V   26168.88358071  .00000056  00000+0  39460-4 0  9999
2 65584  81.3020  10.0799 0007397 176.6875 183.4332 13.83801338 38795
PRAETORIAN SDA_601      
1 65585U 25203W   26168.63751879 -.00000049  00000+0 -55739-4 0  9997
2 65585  81.3038  10.6040 0005218 194.2436 165.8573 13.83167634 38749
